*******************************************************************************
Ephemeris / WWW_USER Mon Jul 15 19:26:30 2024 Pasadena, USA      / Horizons    
*******************************************************************************
Target body name: (2018 RA1)                      {source: JPL#6}
Center body name: Earth (399)                     {source: DE441}
Center-site name: Gemini South Obs., Cerro Pachon
*******************************************************************************
Start time      : A.D. 2018-Dec-21 23:53:00.0000 UT      
Stop  time      : A.D. 2018-Dec-22 09:29:00.0000 UT      
Step-size       : 1 minutes
*******************************************************************************
Target pole/equ : undefined
Target radii    : undefined                                                    
Center geodetic : 289.2634, -30.2406227, 2.71233  {E-lon(deg),Lat(deg),Alt(km)}
Center cylindric: 289.2634,5517.21435,-3194.81213 {E-lon(deg),Dxy(km),Dz(km)}
Center pole/equ : ITRF93                          {East-longitude positive}
Center radii    : 6378.137, 6378.137, 6356.752 km {Equator_a, b, pole_c}       
Target primary  : Sun
Vis. interferer : MOON (R_eq= 1737.400) km        {source: DE441}
Rel. light bend : Sun                             {source: DE441}
Rel. lght bnd GM: 1.3271E+11 km^3/s^2                                          
Small-body perts: Yes                             {source: SB441-N16}
Atmos refraction: NO (AIRLESS)
RA format       : HMS
Time format     : CAL 
Calendar mode   : Mixed Julian/Gregorian
RTS-only print  : NO       
EOP file        : eop.240715.p241008                                           
EOP coverage    : DATA-BASED 1962-JAN-20 TO 2024-JUL-15. PREDICTS-> 2024-OCT-07
Units conversion: 1 au= 149597870.700 km, c= 299792.458 km/s, 1 day= 86400.0 s 
Table cut-offs 1: Elevation (-90.0deg=NO ),Airmass (>38.000=NO), Daylight (YES)
Table cut-offs 2: Solar elongation (  0.0,180.0=NO ),Local Hour Angle( 0.0=NO )
Table cut-offs 3: RA/DEC angular rate (     0.0=NO )                           
*******************************************************************************
Initial IAU76/J2000 heliocentric ecliptic osculating elements (au, days, deg.):
  EPOCH=  2458369.5 ! 2018-Sep-08.00 (TDB)         Residual RMS= .21275        
   EC= .3232115344739424   QR= .7703453101153647   TP= 2458436.6763547547      
   OM= 166.2054176892707   W=  269.7217787981747   IN= 8.763099478405824       
  Equivalent ICRF heliocentric cartesian coordinates (au, au/d):
   X= 9.899686155013647E-01  Y=-2.468208982240139E-01  Z=-1.030323866474361E-01
  VX=-9.411283005844916E-04 VY= 1.717513364149167E-02 VZ= 4.613440841260365E-03
Asteroid physical parameters (km, seconds, rotational period in hours):        
   GM= n.a.                RAD= n.a.               ROTPER= n.a.                
   H= 26.4                 G= .150                 B-V= n.a.                   
                           ALBEDO= n.a.            STYP= n.a.                  
*******************************************************************************
 Date__(UT)__HR:MN     R.A._________(ICRF)_________DEC
******************************************************
$$SOE
 2018-Dec-22 01:56  m  13 45 24.177577 -16 54 20.52727
 2018-Dec-22 01:57  m  13 45 24.308952 -16 54 20.66739
 2018-Dec-22 01:58  m  13 45 24.440321 -16 54 20.80756
 2018-Dec-22 01:59  m  13 45 24.571685 -16 54 20.94778
 2018-Dec-22 02:00  m  13 45 24.703042 -16 54 21.08806
 2018-Dec-22 02:01  m  13 45 24.834394 -16 54 21.22839
 2018-Dec-22 02:02  m  13 45 24.965741 -16 54 21.36877
 2018-Dec-22 02:03  m  13 45 25.097081 -16 54 21.50921
 2018-Dec-22 02:04  m  13 45 25.228415 -16 54 21.64969
 2018-Dec-22 02:05  m  13 45 25.359743 -16 54 21.79023
 2018-Dec-22 02:06  m  13 45 25.491066 -16 54 21.93083
 2018-Dec-22 02:07  m  13 45 25.622382 -16 54 22.07147
 2018-Dec-22 02:08  m  13 45 25.753692 -16 54 22.21217
 2018-Dec-22 02:09  m  13 45 25.884995 -16 54 22.35292
 2018-Dec-22 02:10  m  13 45 26.016293 -16 54 22.49372
 2018-Dec-22 02:11  m  13 45 26.147584 -16 54 22.63458
 2018-Dec-22 02:12  m  13 45 26.278868 -16 54 22.77548
 2018-Dec-22 02:13  m  13 45 26.410146 -16 54 22.91644
 2018-Dec-22 02:14  m  13 45 26.541418 -16 54 23.05745
 2018-Dec-22 02:15  m  13 45 26.672683 -16 54 23.19851
 2018-Dec-22 02:16  m  13 45 26.803942 -16 54 23.33962
 2018-Dec-22 02:17  m  13 45 26.935194 -16 54 23.48079
 2018-Dec-22 02:18  m  13 45 27.066439 -16 54 23.62200
 2018-Dec-22 02:19  m  13 45 27.197677 -16 54 23.76327
 2018-Dec-22 02:20  m  13 45 27.328908 -16 54 23.90458
 2018-Dec-22 02:21  m  13 45 27.460133 -16 54 24.04595
 2018-Dec-22 02:22  m  13 45 27.591351 -16 54 24.18737
 2018-Dec-22 02:23  m  13 45 27.722561 -16 54 24.32884
 2018-Dec-22 02:24  m  13 45 27.853765 -16 54 24.47036
 2018-Dec-22 02:25  m  13 45 27.984961 -16 54 24.61192
 2018-Dec-22 02:26  m  13 45 28.116150 -16 54 24.75354
 2018-Dec-22 02:27  m  13 45 28.247332 -16 54 24.89521
 2018-Dec-22 02:28  m  13 45 28.378507 -16 54 25.03693
 2018-Dec-22 02:29  m  13 45 28.509675 -16 54 25.17870
 2018-Dec-22 02:30  m  13 45 28.640835 -16 54 25.32052
 2018-Dec-22 02:31  m  13 45 28.771987 -16 54 25.46239
 2018-Dec-22 02:32  m  13 45 28.903132 -16 54 25.60430
 2018-Dec-22 02:33  m  13 45 29.034270 -16 54 25.74627
 2018-Dec-22 02:34  m  13 45 29.165400 -16 54 25.88828
 2018-Dec-22 02:35  m  13 45 29.296522 -16 54 26.03035
 2018-Dec-22 02:36  m  13 45 29.427637 -16 54 26.17246
 2018-Dec-22 02:37  m  13 45 29.558744 -16 54 26.31462
 2018-Dec-22 02:38  m  13 45 29.689843 -16 54 26.45683
 2018-Dec-22 02:39  m  13 45 29.820934 -16 54 26.59909
 2018-Dec-22 02:40  m  13 45 29.952018 -16 54 26.74140
 2018-Dec-22 02:41  m  13 45 30.083093 -16 54 26.88375
 2018-Dec-22 02:42  m  13 45 30.214161 -16 54 27.02615
 2018-Dec-22 02:43  m  13 45 30.345220 -16 54 27.16860
 2018-Dec-22 02:44  m  13 45 30.476271 -16 54 27.31110
 2018-Dec-22 02:45  m  13 45 30.607314 -16 54 27.45365
 2018-Dec-22 02:46  m  13 45 30.738349 -16 54 27.59624
 2018-Dec-22 02:47  m  13 45 30.869376 -16 54 27.73888
 2018-Dec-22 02:48  m  13 45 31.000394 -16 54 27.88156
 2018-Dec-22 02:49  m  13 45 31.131404 -16 54 28.02430
 2018-Dec-22 02:50  m  13 45 31.262405 -16 54 28.16708
 2018-Dec-22 02:51  m  13 45 31.393398 -16 54 28.30991
 2018-Dec-22 02:52  m  13 45 31.524383 -16 54 28.45278
 2018-Dec-22 02:53  m  13 45 31.655359 -16 54 28.59570
 2018-Dec-22 02:54  m  13 45 31.786326 -16 54 28.73866
 2018-Dec-22 02:55  m  13 45 31.917285 -16 54 28.88168
 2018-Dec-22 02:56  m  13 45 32.048234 -16 54 29.02473
 2018-Dec-22 02:57  m  13 45 32.179176 -16 54 29.16784
 2018-Dec-22 02:58  m  13 45 32.310108 -16 54 29.31099
 2018-Dec-22 02:59  m  13 45 32.441031 -16 54 29.45418
 2018-Dec-22 03:00  m  13 45 32.571946 -16 54 29.59742
 2018-Dec-22 03:01  m  13 45 32.702852 -16 54 29.74070
 2018-Dec-22 03:02  m  13 45 32.833748 -16 54 29.88403
 2018-Dec-22 03:03  m  13 45 32.964636 -16 54 30.02741
 2018-Dec-22 03:04  m  13 45 33.095514 -16 54 30.17082
 2018-Dec-22 03:05  m  13 45 33.226384 -16 54 30.31429
 2018-Dec-22 03:06  m  13 45 33.357244 -16 54 30.45779
 2018-Dec-22 03:07  m  13 45 33.488095 -16 54 30.60135
 2018-Dec-22 03:08  m  13 45 33.618936 -16 54 30.74494
 2018-Dec-22 03:09  m  13 45 33.749768 -16 54 30.88858
 2018-Dec-22 03:10  m  13 45 33.880591 -16 54 31.03226
 2018-Dec-22 03:11  m  13 45 34.011404 -16 54 31.17599
 2018-Dec-22 03:12  m  13 45 34.142208 -16 54 31.31975
 2018-Dec-22 03:13  m  13 45 34.273003 -16 54 31.46357
 2018-Dec-22 03:14  m  13 45 34.403788 -16 54 31.60742
 2018-Dec-22 03:15  m  13 45 34.534563 -16 54 31.75132
 2018-Dec-22 03:16  m  13 45 34.665328 -16 54 31.89526
 2018-Dec-22 03:17  m  13 45 34.796084 -16 54 32.03924
 2018-Dec-22 03:18  m  13 45 34.926830 -16 54 32.18326
 2018-Dec-22 03:19  m  13 45 35.057566 -16 54 32.32733
 2018-Dec-22 03:20  m  13 45 35.188293 -16 54 32.47143
 2018-Dec-22 03:21  m  13 45 35.319009 -16 54 32.61558
 2018-Dec-22 03:22  m  13 45 35.449716 -16 54 32.75977
 2018-Dec-22 03:23  m  13 45 35.580412 -16 54 32.90401
 2018-Dec-22 03:24  m  13 45 35.711099 -16 54 33.04828
 2018-Dec-22 03:25  m  13 45 35.841775 -16 54 33.19259
 2018-Dec-22 03:26  m  13 45 35.972442 -16 54 33.33695
 2018-Dec-22 03:27  m  13 45 36.103098 -16 54 33.48134
 2018-Dec-22 03:28  m  13 45 36.233744 -16 54 33.62578
 2018-Dec-22 03:29  m  13 45 36.364380 -16 54 33.77025
 2018-Dec-22 03:30  m  13 45 36.495005 -16 54 33.91477
 2018-Dec-22 03:31  m  13 45 36.625620 -16 54 34.05932
 2018-Dec-22 03:32  m  13 45 36.756225 -16 54 34.20392
 2018-Dec-22 03:33  m  13 45 36.886819 -16 54 34.34855
 2018-Dec-22 03:34  m  13 45 37.017403 -16 54 34.49323
 2018-Dec-22 03:35  m  13 45 37.147976 -16 54 34.63794
 2018-Dec-22 03:36  m  13 45 37.278539 -16 54 34.78269
 2018-Dec-22 03:37  m  13 45 37.409091 -16 54 34.92748
 2018-Dec-22 03:38  m  13 45 37.539633 -16 54 35.07231
 2018-Dec-22 03:39  m  13 45 37.670164 -16 54 35.21717
 2018-Dec-22 03:40  m  13 45 37.800684 -16 54 35.36208
 2018-Dec-22 03:41  m  13 45 37.931193 -16 54 35.50702
 2018-Dec-22 03:42  m  13 45 38.061692 -16 54 35.65200
 2018-Dec-22 03:43  m  13 45 38.192180 -16 54 35.79702
 2018-Dec-22 03:44  m  13 45 38.322657 -16 54 35.94207
 2018-Dec-22 03:45  m  13 45 38.453123 -16 54 36.08716
 2018-Dec-22 03:46  m  13 45 38.583578 -16 54 36.23229
 2018-Dec-22 03:47  m  13 45 38.714022 -16 54 36.37746
 2018-Dec-22 03:48  m  13 45 38.844455 -16 54 36.52266
 2018-Dec-22 03:49  m  13 45 38.974877 -16 54 36.66790
 2018-Dec-22 03:50  m  13 45 39.105288 -16 54 36.81317
 2018-Dec-22 03:51  m  13 45 39.235687 -16 54 36.95848
 2018-Dec-22 03:52  m  13 45 39.366076 -16 54 37.10383
 2018-Dec-22 03:53  m  13 45 39.496453 -16 54 37.24921
 2018-Dec-22 03:54  m  13 45 39.626819 -16 54 37.39463
 2018-Dec-22 03:55  m  13 45 39.757174 -16 54 37.54008
 2018-Dec-22 03:56  m  13 45 39.887517 -16 54 37.68557
 2018-Dec-22 03:57  m  13 45 40.017849 -16 54 37.83109
 2018-Dec-22 03:58  m  13 45 40.148169 -16 54 37.97664
